[{"OBJECT_NAME":"KUIPER-00119","OBJECT_ID":"2025-171Z","EPOCH":"2026-03-03T13:27:12.408192","MEAN_MOTION":14.79948022,"ECCENTRICITY":0.0001427,"INCLINATION":51.8995,"RA_OF_ASC_NODE":190.2721,"ARG_OF_PERICENTER":124.9071,"MEAN_ANOMALY":235.2026,"EPHEMERIS_TYPE":0,"CLASSIFICATION_TYPE":"U","NORAD_CAT_ID":65155,"ELEMENT_SET_NO":999,"REV_AT_EPOCH":3190,"BSTAR":0.0020514,"MEAN_MOTION_DOT":0.00015459,"MEAN_MOTION_DDOT":0},{"OBJECT_NAME":"KUIPER-00120","OBJECT_ID":"2025-217A","EPOCH":"2026-03-03T18:00:02.000160","MEAN_MOTION":14.79988837,"ECCENTRICITY":3.712e-5,"INCLINATION":51.8974,"RA_OF_ASC_NODE":79.3351,"ARG_OF_PERICENTER":110.2047,"MEAN_ANOMALY":357.6129,"EPHEMERIS_TYPE":0,"CLASSIFICATION_TYPE":"U","NORAD_CAT_ID":65762,"ELEMENT_SET_NO":999,"REV_AT_EPOCH":565,"BSTAR":-0.003211374,"MEAN_MOTION_DOT":-0.00024645,"MEAN_MOTION_DDOT":0},{"OBJECT_NAME":"KUIPER-00132","OBJECT_ID":"2025-217B","EPOCH":"2026-03-03T07:43:46.195680","MEAN_MOTION":15.39473712,"ECCENTRICITY":0.00068827,"INCLINATION":51.8613,"RA_OF_ASC_NODE":34.4065,"ARG_OF_PERICENTER":314.8243,"MEAN_ANOMALY":45.2184,"EPHEMERIS_TYPE":0,"CLASSIFICATION_TYPE":"U","NORAD_CAT_ID":65763,"ELEMENT_SET_NO":999,"REV_AT_EPOCH":2444,"BSTAR":0.0012313207,"MEAN_MOTION_DOT":0.00049013,"MEAN_MOTION_DDOT":0},{"OBJECT_NAME":"KUIPER-00133","OBJECT_ID":"2025-217C","EPOCH":"2026-03-03T08:36:00.169056","MEAN_MOTION":14.7994273,"ECCENTRICITY":0.00020833,"INCLINATION":51.9034,"RA_OF_ASC_NODE":81.1155,"ARG_OF_PERICENTER":11.4631,"MEAN_ANOMALY":348.6378,"EPHEMERIS_TYPE":0,"CLASSIFICATION_TYPE":"U","NORAD_CAT_ID":65764,"ELEMENT_SET_NO":999,"REV_AT_EPOCH":2380,"BSTAR":0.00067775369,"MEAN_MOTION_DOT":4.95e-5,"MEAN_MOTION_DDOT":0},{"OBJECT_NAME":"KUIPER-00139","OBJECT_ID":"2025-217D","EPOCH":"2026-03-03T06:06:01.995264","MEAN_MOTION":15.01754895,"ECCENTRICITY":0.00071512,"INCLINATION":51.8855,"RA_OF_ASC_NODE":63.2598,"ARG_OF_PERICENTER":298.4959,"MEAN_ANOMALY":61.5292,"EPHEMERIS_TYPE":0,"CLASSIFICATION_TYPE":"U","NORAD_CAT_ID":65765,"ELEMENT_SET_NO":999,"REV_AT_EPOCH":2404,"BSTAR":0.00074189385,"MEAN_MOTION_DOT":9.515e-5,"MEAN_MOTION_DDOT":0},{"OBJECT_NAME":"KUIPER-00142","OBJECT_ID":"2025-217E","EPOCH":"2026-03-03T22:49:51.547584","MEAN_MOTION":14.7993385,"ECCENTRICITY":6.665e-5,"INCLINATION":51.9007,"RA_OF_ASC_NODE":60.9713,"ARG_OF_PERICENTER":91.3072,"MEAN_ANOMALY":268.7967,"EPHEMERIS_TYPE":0,"CLASSIFICATION_TYPE":"U","NORAD_CAT_ID":65766,"ELEMENT_SET_NO":999,"REV_AT_EPOCH":2413,"BSTAR":0.00011058442,"MEAN_MOTION_DOT":6.22e-6,"MEAN_MOTION_DDOT":0},{"OBJECT_NAME":"KUIPER-00145","OBJECT_ID":"2025-217F","EPOCH":"2026-03-03T09:47:53.621664","MEAN_MOTION":14.79928252,"ECCENTRICITY":8.25e-5,"INCLINATION":51.8996,"RA_OF_ASC_NODE":65.8807,"ARG_OF_PERICENTER":76.6017,"MEAN_ANOMALY":283.5037,"EPHEMERIS_TYPE":0,"CLASSIFICATION_TYPE":"U","NORAD_CAT_ID":65767,"ELEMENT_SET_NO":999,"REV_AT_EPOCH":2401,"BSTAR":0.00014743669,"MEAN_MOTION_DOT":9.03e-6,"MEAN_MOTION_DDOT":0},{"OBJECT_NAME":"KUIPER-00147","OBJECT_ID":"2025-217G","EPOCH":"2026-03-03T10:32:46.581792","MEAN_MOTION":14.79948148,"ECCENTRICITY":7.747e-5,"INCLINATION":51.8996,"RA_OF_ASC_NODE":68.2396,"ARG_OF_PERICENTER":99.6162,"MEAN_ANOMALY":260.4888,"EPHEMERIS_TYPE":0,"CLASSIFICATION_TYPE":"U","NORAD_CAT_ID":65768,"ELEMENT_SET_NO":999,"REV_AT_EPOCH":2398,"BSTAR":8.5452953e-5,"MEAN_MOTION_DOT":4.31e-6,"MEAN_MOTION_DDOT":0},{"OBJECT_NAME":"KUIPER-00148","OBJECT_ID":"2025-217H","EPOCH":"2026-03-03T10:46:59.432736","MEAN_MOTION":15.09587172,"ECCENTRICITY":0.00087719,"INCLINATION":51.8789,"RA_OF_ASC_NODE":53.5688,"ARG_OF_PERICENTER":333.865,"MEAN_ANOMALY":26.1881,"EPHEMERIS_TYPE":0,"CLASSIFICATION_TYPE":"U","NORAD_CAT_ID":65769,"ELEMENT_SET_NO":999,"REV_AT_EPOCH":2419,"BSTAR":-0.0025916492,"MEAN_MOTION_DOT":-0.00042222,"MEAN_MOTION_DDOT":0},{"OBJECT_NAME":"KUIPER-00150","OBJECT_ID":"2025-217J","EPOCH":"2026-03-03T07:02:35.075328","MEAN_MOTION":14.79984567,"ECCENTRICITY":6.461e-5,"INCLINATION":51.9008,"RA_OF_ASC_NODE":78.889,"ARG_OF_PERICENTER":50.7718,"MEAN_ANOMALY":309.3301,"EPHEMERIS_TYPE":0,"CLASSIFICATION_TYPE":"U","NORAD_CAT_ID":65770,"ELEMENT_SET_NO":999,"REV_AT_EPOCH":2382,"BSTAR":0.00064227768,"MEAN_MOTION_DOT":4.684e-5,"MEAN_MOTION_DDOT":0},{"OBJECT_NAME":"KUIPER-00151","OBJECT_ID":"2025-217K","EPOCH":"2026-03-03T10:28:51.566016","MEAN_MOTION":14.79955154,"ECCENTRICITY":9.904e-5,"INCLINATION":51.9007,"RA_OF_ASC_NODE":70.7523,"ARG_OF_PERICENTER":49.3564,"MEAN_ANOMALY":310.7484,"EPHEMERIS_TYPE":0,"CLASSIFICATION_TYPE":"U","NORAD_CAT_ID":65771,"ELEMENT_SET_NO":999,"REV_AT_EPOCH":2395,"BSTAR":0.00077144396,"MEAN_MOTION_DOT":5.668e-5,"MEAN_MOTION_DDOT":0},{"OBJECT_NAME":"KUIPER-00152","OBJECT_ID":"2025-217L","EPOCH":"2026-03-03T09:59:40.197408","MEAN_MOTION":14.79971243,"ECCENTRICITY":8.416e-5,"INCLINATION":51.9002,"RA_OF_ASC_NODE":58.3344,"ARG_OF_PERICENTER":130.7227,"MEAN_ANOMALY":229.3809,"EPHEMERIS_TYPE":0,"CLASSIFICATION_TYPE":"U","NORAD_CAT_ID":65772,"ELEMENT_SET_NO":999,"REV_AT_EPOCH":2412,"BSTAR":0.00068239461,"MEAN_MOTION_DOT":4.989e-5,"MEAN_MOTION_DDOT":0},{"OBJECT_NAME":"KUIPER-00153","OBJECT_ID":"2025-217M","EPOCH":"2026-03-03T09:22:15.870144","MEAN_MOTION":15.13069504,"ECCENTRICITY":0.00104764,"INCLINATION":51.8767,"RA_OF_ASC_NODE":56.8766,"ARG_OF_PERICENTER":304.9745,"MEAN_ANOMALY":55.0247,"EPHEMERIS_TYPE":0,"CLASSIFICATION_TYPE":"U","NORAD_CAT_ID":65773,"ELEMENT_SET_NO":999,"REV_AT_EPOCH":2414,"BSTAR":0.00061094134,"MEAN_MOTION_DOT":0.00010665,"MEAN_MOTION_DDOT":0},{"OBJECT_NAME":"KUIPER-00155","OBJECT_ID":"2025-217N","EPOCH":"2026-03-03T22:56:57.758784","MEAN_MOTION":15.22969272,"ECCENTRICITY":0.00054221,"INCLINATION":51.8788,"RA_OF_ASC_NODE":38.6371,"ARG_OF_PERICENTER":313.2237,"MEAN_ANOMALY":46.8291,"EPHEMERIS_TYPE":0,"CLASSIFICATION_TYPE":"U","NORAD_CAT_ID":65774,"ELEMENT_SET_NO":999,"REV_AT_EPOCH":2444,"BSTAR":0.0011850892,"MEAN_MOTION_DOT":0.00028005,"MEAN_MOTION_DDOT":0},{"OBJECT_NAME":"KUIPER-00156","OBJECT_ID":"2025-217P","EPOCH":"2026-03-03T09:18:47.173536","MEAN_MOTION":14.79950629,"ECCENTRICITY":7.773e-5,"INCLINATION":51.9031,"RA_OF_ASC_NODE":53.488,"ARG_OF_PERICENTER":98.4996,"MEAN_ANOMALY":261.6054,"EPHEMERIS_TYPE":0,"CLASSIFICATION_TYPE":"U","NORAD_CAT_ID":65775,"ELEMENT_SET_NO":999,"REV_AT_EPOCH":2418,"BSTAR":0.00071060955,"MEAN_MOTION_DOT":5.202e-5,"MEAN_MOTION_DDOT":0},{"OBJECT_NAME":"KUIPER-00158","OBJECT_ID":"2025-217Q","EPOCH":"2026-03-03T09:24:22.052160","MEAN_MOTION":14.80460482,"ECCENTRICITY":0.00010729,"INCLINATION":51.8968,"RA_OF_ASC_NODE":73.3382,"ARG_OF_PERICENTER":37.1896,"MEAN_ANOMALY":322.914,"EPHEMERIS_TYPE":0,"CLASSIFICATION_TYPE":"U","NORAD_CAT_ID":65776,"ELEMENT_SET_NO":999,"REV_AT_EPOCH":2391,"BSTAR":0.00090903073,"MEAN_MOTION_DOT":6.802e-5,"MEAN_MOTION_DDOT":0},{"OBJECT_NAME":"KUIPER-00163","OBJECT_ID":"2025-217R","EPOCH":"2026-03-03T18:00:02.000160","MEAN_MOTION":14.89496046,"ECCENTRICITY":8.386e-5,"INCLINATION":51.8964,"RA_OF_ASC_NODE":73.754,"ARG_OF_PERICENTER":93.8845,"MEAN_ANOMALY":290.4101,"EPHEMERIS_TYPE":0,"CLASSIFICATION_TYPE":"U","NORAD_CAT_ID":65777,"ELEMENT_SET_NO":999,"REV_AT_EPOCH":527,"BSTAR":0.11785011,"MEAN_MOTION_DOT":0.01228192,"MEAN_MOTION_DDOT":0}]
